ONEWEB-0126             
1 47272U 20100Q   23241.85858812  .00000442  00000+0  11942-2 0  9990
2 47272  87.8972 193.8915 0002219  77.7024 282.4353 13.12446016130607
ONEWEB-0127             
1 47273U 20100R   23241.82152476 -.00000467  00000+0 -13329-2 0  9991
2 47273  87.9043 193.8809 0002115  78.8810 281.2556 13.12440632130622
ONEWEB-0128             
1 47274U 20100S   23241.91895575  .00000139  00000+0  35046-3 0  9991
2 47274  87.9050 193.8465 0002439  84.4707 275.6700 13.12442994130650
ONEWEB-0129             
1 47275U 20100T   23241.36623030 -.00000289  00000+0 -83929-3 0  9997
2 47275  87.8993 194.0013 0003217  52.7875 307.3546 13.12444127130513
ONEWEB-0130             
1 47276U 20100U   23241.39166044  .00000476  00000+0  12891-2 0  9993
2 47276  87.8976 193.9899 0002117  81.9981 278.1387 13.12443589130480
ONEWEB-0131             
1 47277U 20100V   23242.38061578  .00000223  00000+0  58431-3 0  9991
2 47277  87.9057 193.7453 0002095  85.7929 274.3439 13.12443153130657
ONEWEB-0132             
1 47278U 20100W   23241.80038380  .00000170  00000+0  43662-3 0  9994
2 47278  87.9057 193.8617 0001847  86.8486 273.2854 13.12442586130473
ONEWEB-0133             
1 47279U 20100X   23241.35986578 -.00000385  00000+0 -11064-2 0  9996
2 47279  87.9041 193.9775 0002068  84.1511 275.9854 13.12441051130575
